{"type": "FeatureCollection", "features": [ {"type": "Feature", "properties": {"norad_id": 34077, "name": "IRIDIUM 33 DEB", "group": "iridium-33-debris", "lat": -65.40622513620941, "lon": -119.62206288025527, "alt_km": 692.032229414468, "timestamp": "2025-12-10T14:53:37.473228+00:00", "meta": {"OBJECT_NAME": "IRIDIUM 33 DEB", "OBJECT_ID": "1997-051CL", "EPOCH": "2025-12-10T05:52:42.153312", "MEAN_MOTION": 14.64781175, "ECCENTRICITY": 0.00104641, "INCLINATION": 86.3859, "RA_OF_ASC_NODE": 52.6061, "ARG_OF_PERICENTER": 47.385, "MEAN_ANOMALY": 18.7078, "EPHEMERIS_TYPE": 0, "CLASSIFICATION_TYPE": "U", "NORAD_CAT_ID": 34077, "ELEMENT_SET_NO": 999, "REV_AT_EPOCH": 88296, "BSTAR": 0.0023199606, "MEAN_MOTION_DOT": 0.00012409, "MEAN_MOTION_DDOT": 0}, "tle": {"line1": "1 34077U 97051CL  25344.24493233  .00012409  00000+0  23200-2 0  9995", "line2": "2 34077  86.3859  52.6061 0010464  47.3850  18.7078 14.64781175882962"}}, "geometry": {"type": "Point", "coordinates": [-119.62206288025527, -65.40622513620941]}}, {"type": "Feature", "properties": {"norad_id": 34079, "name": "IRIDIUM 33 DEB", "group": "iridium-33-debris", "lat": 83.61115992635118, "lon": 155.16980720740347, "alt_km": 610.4109680828224, "timestamp": "2025-12-10T14:53:37.473238+00:00", "meta": {"OBJECT_NAME": "IRIDIUM 33 DEB", "OBJECT_ID": "1997-051CN", "EPOCH": "2025-12-10T01:46:30.105984", "MEAN_MOTION": 14.83410874, "ECCENTRICITY": 0.0005944, "INCLINATION": 86.3776, "RA_OF_ASC_NODE": 9.8742, "ARG_OF_PERICENTER": 16.6843, "MEAN_ANOMALY": 41.3467, "EPHEMERIS_TYPE": 0, "CLASSIFICATION_TYPE": "U", "NORAD_CAT_ID": 34079, "ELEMENT_SET_NO": 999, "REV_AT_EPOCH": 88938, "BSTAR": 0.0021846749, "MEAN_MOTION_DOT": 0.00017982, "MEAN_MOTION_DDOT": 0}, "tle": {"line1": "1 34079U 97051CN  25344.07395956  .00017982  00000+0  21847-2 0  9997", "line2": "2 34079  86.3776   9.8742 0005944  16.6843  41.3467 14.83410874889383"}}, "geometry": {"type": "Point", "coordinates": [155.16980720740347, 83.61115992635118]}}, {"type": "Feature", "properties": {"norad_id": 34088, "name": "IRIDIUM 33 DEB", "group": "iridium-33-debris", "lat": 52.92925623444289, "lon": -153.10331359659335, "alt_km": 587.2498384540904, "timestamp": "2025-12-10T14:53:37.473247+00:00", "meta": {"OBJECT_NAME": "IRIDIUM 33 DEB", "OBJECT_ID": "1997-051CX", "EPOCH": "2025-12-10T03:18:56.012256", "MEAN_MOTION": 14.91176406, "ECCENTRICITY": 0.00054818, "INCLINATION": 86.3845, "RA_OF_ASC_NODE": 31.9191, "ARG_OF_PERICENTER": 185.8656, "MEAN_ANOMALY": 232.9656, "EPHEMERIS_TYPE": 0, "CLASSIFICATION_TYPE": "U", "NORAD_CAT_ID": 34088, "ELEMENT_SET_NO": 999, "REV_AT_EPOCH": 88703, "BSTAR": 0.0035919602, "MEAN_MOTION_DOT": 0.0003583, "MEAN_MOTION_DDOT": 0}, "tle": {"line1": "1 34088U 97051CX  25344.13814829  .00035830  00000+0  35920-2 0  9998", "line2": "2 34088  86.3845  31.9191 0005481 185.8656 232.9656 14.91176406887038"}}, "geometry": {"type": "Point", "coordinates": [-153.10331359659335, 52.92925623444289]}}, {"type": "Feature", "properties": {"norad_id": 34091, "name": "IRIDIUM 33 DEB", "group": "iridium-33-debris", "lat": 25.77964110639217, "lon": 69.57486382584608, "alt_km": 621.6086649538111, "timestamp": "2025-12-10T14:53:37.473256+00:00", "meta": {"OBJECT_NAME": "IRIDIUM 33 DEB", "OBJECT_ID": "1997-051DA", "EPOCH": "2025-12-10T05:03:05.693184", "MEAN_MOTION": 14.81495206, "ECCENTRICITY": 0.00333598, "INCLINATION": 86.3408, "RA_OF_ASC_NODE": 67.9914, "ARG_OF_PERICENTER": 302.3952, "MEAN_ANOMALY": 57.4043, "EPHEMERIS_TYPE": 0, "CLASSIFICATION_TYPE": "U", "NORAD_CAT_ID": 34091, "ELEMENT_SET_NO": 999, "REV_AT_EPOCH": 87829, "BSTAR": 0.0076077061, "MEAN_MOTION_DOT": 0.00060664, "MEAN_MOTION_DDOT": 0}, "tle": {"line1": "1 34091U 97051DA  25344.21048256  .00060664  00000+0  76077-2 0  9995", "line2": "2 34091  86.3408  67.9914 0033359 302.3952  57.4043 14.81495206878298"}}, "geometry": {"type": "Point", "coordinates": [69.57486382584608, 25.77964110639217]}}, {"type": "Feature", "properties": {"norad_id": 34097, "name": "IRIDIUM 33 DEB", "group": "iridium-33-debris", "lat": -86.16863804755125, "lon": -80.56663634278148, "alt_km": 791.7751383225459, "timestamp": "2025-12-10T14:53:37.473266+00:00", "meta": {"OBJECT_NAME": "IRIDIUM 33 DEB", "OBJECT_ID": "1997-051DG", "EPOCH": "2025-12-10T01:54:58.988160", "MEAN_MOTION": 14.34741967, "ECCENTRICITY": 0.00828777, "INCLINATION": 86.2003, "RA_OF_ASC_NODE": 2.5814, "ARG_OF_PERICENTER": 10.8619, "MEAN_ANOMALY": 349.4341, "EPHEMERIS_TYPE": 0, "CLASSIFICATION_TYPE": "U", "NORAD_CAT_ID": 34097, "ELEMENT_SET_NO": 999, "REV_AT_EPOCH": 87081, "BSTAR": 0.001899655, "MEAN_MOTION_DOT": 5.613e-05, "MEAN_MOTION_DDOT": 0}, "tle": {"line1": "1 34097U 97051DG  25344.07984940  .00005613  00000+0  18997-2 0  9994", "line2": "2 34097  86.2003   2.5814 0082877  10.8619 349.4341 14.34741967870819"}}, "geometry": {"type": "Point", "coordinates": [-80.56663634278148, -86.16863804755125]}}, {"type": "Feature", "properties": {"norad_id": 34145, "name": "IRIDIUM 33 DEB", "group": "iridium-33-debris", "lat": 56.050287067040685, "lon": 147.82312597949996, "alt_km": 709.258342427639, "timestamp": "2025-12-10T14:53:37.473275+00:00", "meta": {"OBJECT_NAME": "IRIDIUM 33 DEB", "OBJECT_ID": "1997-051DY", "EPOCH": "2025-12-10T04:20:07.855008", "MEAN_MOTION": 14.42258512, "ECCENTRICITY": 0.00556582, "INCLINATION": 86.2123, "RA_OF_ASC_NODE": 333.6661, "ARG_OF_PERICENTER": 101.9259, "MEAN_ANOMALY": 258.8189, "EPHEMERIS_TYPE": 0, "CLASSIFICATION_TYPE": "U", "NORAD_CAT_ID": 34145, "ELEMENT_SET_NO": 999, "REV_AT_EPOCH": 87601, "BSTAR": 0.0015884178, "MEAN_MOTION_DOT": 5.356e-05, "MEAN_MOTION_DDOT": 0}, "tle": {"line1": "1 34145U 97051DY  25344.18064647  .00005356  00000+0  15884-2 0  9999", "line2": "2 34145  86.2123 333.6661 0055658 101.9259 258.8189 14.42258512876012"}}, "geometry": {"type": "Point", "coordinates": [147.82312597949996, 56.050287067040685]}}, {"type": "Feature", "properties": {"norad_id": 34146, "name": "IRIDIUM 33 DEB", "group": "iridium-33-debris", "lat": 69.1521284835883, "lon": 0.5636749766723647, "alt_km": 739.0686206562241, "timestamp": "2025-12-10T14:53:37.473284+00:00", "meta": {"OBJECT_NAME": "IRIDIUM 33 DEB", "OBJECT_ID": "1997-051DZ", "EPOCH": "2025-12-10T01:35:00.265920", "MEAN_MOTION": 14.49018235, "ECCENTRICITY": 0.00252772, "INCLINATION": 86.2836, "RA_OF_ASC_NODE": 350.9814, "ARG_OF_PERICENTER": 231.1216, "MEAN_ANOMALY": 187.2967, "EPHEMERIS_TYPE": 0, "CLASSIFICATION_TYPE": "U", "NORAD_CAT_ID": 34146, "ELEMENT_SET_NO": 999, "REV_AT_EPOCH": 88068, "BSTAR": 0.001315332, "MEAN_MOTION_DOT": 5.028e-05, "MEAN_MOTION_DDOT": 0}, "tle": {"line1": "1 34146U 97051DZ  25344.06597530  .00005028  00000+0  13153-2 0  9992", "line2": "2 34146  86.2836 350.9814 0025277 231.1216 187.2967 14.49018235880689"}}, "geometry": {"type": "Point", "coordinates": [0.5636749766723647, 69.1521284835883]}}, {"type": "Feature", "properties": {"norad_id": 34159, "name": "IRIDIUM 33 DEB", "group": "iridium-33-debris", "lat": -44.499189131101836, "lon": -127.25976144236124, "alt_km": 764.1770836676324, "timestamp": "2025-12-10T14:53:37.473293+00:00", "meta": {"OBJECT_NAME": "IRIDIUM 33 DEB", "OBJECT_ID": "1997-051EN", "EPOCH": "2025-12-10T05:30:11.322144", "MEAN_MOTION": 14.38483743, "ECCENTRICITY": 0.00259696, "INCLINATION": 86.351, "RA_OF_ASC_NODE": 49.3117, "ARG_OF_PERICENTER": 296.6824, "MEAN_ANOMALY": 63.1716, "EPHEMERIS_TYPE": 0, "CLASSIFICATION_TYPE": "U", "NORAD_CAT_ID": 34159, "ELEMENT_SET_NO": 999, "REV_AT_EPOCH": 87923, "BSTAR": 0.00060071013, "MEAN_MOTION_DOT": 1.86e-05, "MEAN_MOTION_DDOT": 0}, "tle": {"line1": "1 34159U 97051EN  25344.22929771  .00001860  00000+0  60071-3 0  9992", "line2": "2 34159  86.3510  49.3117 0025969 296.6824  63.1716 14.38483743879238"}}, "geometry": {"type": "Point", "coordinates": [-127.25976144236124, -44.499189131101836]}}, {"type": "Feature", "properties": {"norad_id": 34350, "name": "IRIDIUM 33 DEB", "group": "iridium-33-debris", "lat": -21.366796634464237, "lon": -174.83322613304398, "alt_km": 738.003840762558, "timestamp": "2025-12-10T14:53:37.473302+00:00", "meta": {"OBJECT_NAME": "IRIDIUM 33 DEB", "OBJECT_ID": "1997-051ES", "EPOCH": "2025-12-10T02:36:29.822400", "MEAN_MOTION": 14.45377158, "ECCENTRICITY": 0.00225856, "INCLINATION": 86.3276, "RA_OF_ASC_NODE": 3.949, "ARG_OF_PERICENTER": 143.3775, "MEAN_ANOMALY": 275.8261, "EPHEMERIS_TYPE": 0, "CLASSIFICATION_TYPE": "U", "NORAD_CAT_ID": 34350, "ELEMENT_SET_NO": 999, "REV_AT_EPOCH": 88255, "BSTAR": 0.0004557771, "MEAN_MOTION_DOT": 1.627e-05, "MEAN_MOTION_DDOT": 0}, "tle": {"line1": "1 34350U 97051ES  25344.10867850  .00001627  00000+0  45578-3 0  9997", "line2": "2 34350  86.3276   3.9490 0022585 143.3775 275.8261 14.45377158882550"}}, "geometry": {"type": "Point", "coordinates": [-174.83322613304398, -21.366796634464237]}}, {"type": "Feature", "properties": {"norad_id": 34366, "name": "IRIDIUM 33 DEB", "group": "iridium-33-debris", "lat": 76.60075632096316, "lon": -145.22440144687667, "alt_km": 693.8704228613042, "timestamp": "2025-12-10T14:53:37.473312+00:00", "meta": {"OBJECT_NAME": "IRIDIUM 33 DEB", "OBJECT_ID": "1997-051FJ", "EPOCH": "2025-12-10T04:47:12.333120", "MEAN_MOTION": 14.54021911, "ECCENTRICITY": 0.00223081, "INCLINATION": 86.3691, "RA_OF_ASC_NODE": 50.4179, "ARG_OF_PERICENTER": 147.6537, "MEAN_ANOMALY": 272.451, "EPHEMERIS_TYPE": 0, "CLASSIFICATION_TYPE": "U", "NORAD_CAT_ID": 34366, "ELEMENT_SET_NO": 999, "REV_AT_EPOCH": 88145, "BSTAR": 0.0016468229, "MEAN_MOTION_DOT": 6.988e-05, "MEAN_MOTION_DDOT": 0}, "tle": {"line1": "1 34366U 97051FJ  25344.19944830  .00006988  00000+0  16468-2 0  9997", "line2": "2 34366  86.3691  50.4179 0022308 147.6537 272.4510 14.54021911881456"}}, "geometry": {"type": "Point", "coordinates": [-145.22440144687667, 76.60075632096316]}}]}